[{"OBJECT_NAME":"STARLINK-37146","OBJECT_ID":"2026-070P","EPOCH":"2026-04-15T06:00:02.000160","MEAN_MOTION":15.87566754,"ECCENTRICITY":8.73e-5,"INCLINATION":53.1584,"RA_OF_ASC_NODE":201.1226,"ARG_OF_PERICENTER":88.9907,"MEAN_ANOMALY":7.0991,"EPHEMERIS_TYPE":0,"CLASSIFICATION_TYPE":"U","NORAD_CAT_ID":68555,"ELEMENT_SET_NO":999,"REV_AT_EPOCH":325,"BSTAR":-0.0050774308,"MEAN_MOTION_DOT":-0.01227573,"MEAN_MOTION_DDOT":0},{"OBJECT_NAME":"STARLINK-37144","OBJECT_ID":"2026-070Q","EPOCH":"2026-04-15T06:00:02.000160","MEAN_MOTION":15.87795918,"ECCENTRICITY":8.563e-5,"INCLINATION":53.1586,"RA_OF_ASC_NODE":201.0896,"ARG_OF_PERICENTER":94.8153,"MEAN_ANOMALY":17.0421,"EPHEMERIS_TYPE":0,"CLASSIFICATION_TYPE":"U","NORAD_CAT_ID":68556,"ELEMENT_SET_NO":999,"REV_AT_EPOCH":325,"BSTAR":-0.0051083521,"MEAN_MOTION_DOT":-0.01246854,"MEAN_MOTION_DDOT":0},{"OBJECT_NAME":"STARLINK-37210","OBJECT_ID":"2026-070R","EPOCH":"2026-04-15T06:00:02.000160","MEAN_MOTION":15.87735336,"ECCENTRICITY":9.396e-5,"INCLINATION":53.1584,"RA_OF_ASC_NODE":201.0983,"ARG_OF_PERICENTER":97.0868,"MEAN_ANOMALY":10.9102,"EPHEMERIS_TYPE":0,"CLASSIFICATION_TYPE":"U","NORAD_CAT_ID":68557,"ELEMENT_SET_NO":999,"REV_AT_EPOCH":325,"BSTAR":-0.0051243221,"MEAN_MOTION_DOT":-0.01246995,"MEAN_MOTION_DDOT":0},{"OBJECT_NAME":"STARLINK-37227","OBJECT_ID":"2026-070S","EPOCH":"2026-04-15T06:00:02.000160","MEAN_MOTION":15.87862269,"ECCENTRICITY":9.853e-5,"INCLINATION":53.1582,"RA_OF_ASC_NODE":201.0814,"ARG_OF_PERICENTER":97.5148,"MEAN_ANOMALY":18.2193,"EPHEMERIS_TYPE":0,"CLASSIFICATION_TYPE":"U","NORAD_CAT_ID":68558,"ELEMENT_SET_NO":999,"REV_AT_EPOCH":325,"BSTAR":-0.0051246084,"MEAN_MOTION_DOT":-0.01254149,"MEAN_MOTION_DDOT":0},{"OBJECT_NAME":"STARLINK-37294","OBJECT_ID":"2026-070T","EPOCH":"2026-04-15T06:00:02.000160","MEAN_MOTION":15.87905181,"ECCENTRICITY":0.0001104,"INCLINATION":53.1585,"RA_OF_ASC_NODE":201.0731,"ARG_OF_PERICENTER":79.0248,"MEAN_ANOMALY":40.8092,"EPHEMERIS_TYPE":0,"CLASSIFICATION_TYPE":"U","NORAD_CAT_ID":68559,"ELEMENT_SET_NO":999,"REV_AT_EPOCH":325,"BSTAR":-0.0051304332,"MEAN_MOTION_DOT":-0.01257886,"MEAN_MOTION_DDOT":0},{"OBJECT_NAME":"STARLINK-37291","OBJECT_ID":"2026-070U","EPOCH":"2026-04-15T06:00:02.000160","MEAN_MOTION":15.87973595,"ECCENTRICITY":0.00010952,"INCLINATION":53.1583,"RA_OF_ASC_NODE":201.0649,"ARG_OF_PERICENTER":101.3166,"MEAN_ANOMALY":22.3224,"EPHEMERIS_TYPE":0,"CLASSIFICATION_TYPE":"U","NORAD_CAT_ID":68560,"ELEMENT_SET_NO":999,"REV_AT_EPOCH":325,"BSTAR":-0.0051131134,"MEAN_MOTION_DOT":-0.01257943,"MEAN_MOTION_DDOT":0},{"OBJECT_NAME":"STARLINK-37114","OBJECT_ID":"2026-070V","EPOCH":"2026-04-15T06:00:02.000160","MEAN_MOTION":15.88052988,"ECCENTRICITY":0.00011389,"INCLINATION":53.1583,"RA_OF_ASC_NODE":201.0574,"ARG_OF_PERICENTER":90.6603,"MEAN_ANOMALY":36.6449,"EPHEMERIS_TYPE":0,"CLASSIFICATION_TYPE":"U","NORAD_CAT_ID":68561,"ELEMENT_SET_NO":999,"REV_AT_EPOCH":325,"BSTAR":-0.0050991216,"MEAN_MOTION_DOT":-0.01259368,"MEAN_MOTION_DDOT":0},{"OBJECT_NAME":"STARLINK-37233","OBJECT_ID":"2026-070W","EPOCH":"2026-04-15T06:00:02.000160","MEAN_MOTION":15.88184634,"ECCENTRICITY":0.00012558,"INCLINATION":53.1584,"RA_OF_ASC_NODE":201.0413,"ARG_OF_PERICENTER":87.5308,"MEAN_ANOMALY":47.4483,"EPHEMERIS_TYPE":0,"CLASSIFICATION_TYPE":"U","NORAD_CAT_ID":68562,"ELEMENT_SET_NO":999,"REV_AT_EPOCH":325,"BSTAR":-0.0050776144,"MEAN_MOTION_DOT":-0.01262125,"MEAN_MOTION_DDOT":0},{"OBJECT_NAME":"STARLINK-36238","OBJECT_ID":"2026-070X","EPOCH":"2026-04-15T06:00:02.000160","MEAN_MOTION":15.88125241,"ECCENTRICITY":0.00012163,"INCLINATION":53.1582,"RA_OF_ASC_NODE":201.0495,"ARG_OF_PERICENTER":81.7686,"MEAN_ANOMALY":49.3094,"EPHEMERIS_TYPE":0,"CLASSIFICATION_TYPE":"U","NORAD_CAT_ID":68563,"ELEMENT_SET_NO":999,"REV_AT_EPOCH":321,"BSTAR":-0.0050933279,"MEAN_MOTION_DOT":-0.0126221,"MEAN_MOTION_DDOT":0},{"OBJECT_NAME":"STARLINK-37008","OBJECT_ID":"2026-070Y","EPOCH":"2026-04-15T06:00:02.000160","MEAN_MOTION":15.88245243,"ECCENTRICITY":0.0001067,"INCLINATION":53.1582,"RA_OF_ASC_NODE":201.0333,"ARG_OF_PERICENTER":88.0046,"MEAN_ANOMALY":50.9499,"EPHEMERIS_TYPE":0,"CLASSIFICATION_TYPE":"U","NORAD_CAT_ID":68564,"ELEMENT_SET_NO":999,"REV_AT_EPOCH":325,"BSTAR":-0.0050899077,"MEAN_MOTION_DOT":-0.01268141,"MEAN_MOTION_DDOT":0},{"OBJECT_NAME":"STARLINK-37161","OBJECT_ID":"2026-070Z","EPOCH":"2026-04-15T06:00:02.000160","MEAN_MOTION":15.88312932,"ECCENTRICITY":0.00010889,"INCLINATION":53.1581,"RA_OF_ASC_NODE":201.0249,"ARG_OF_PERICENTER":81.9263,"MEAN_ANOMALY":60.9105,"EPHEMERIS_TYPE":0,"CLASSIFICATION_TYPE":"U","NORAD_CAT_ID":68565,"ELEMENT_SET_NO":999,"REV_AT_EPOCH":325,"BSTAR":-0.0051018968,"MEAN_MOTION_DOT":-0.01274646,"MEAN_MOTION_DDOT":0},{"OBJECT_NAME":"STARLINK-37212","OBJECT_ID":"2026-070AA","EPOCH":"2026-04-15T06:00:02.000160","MEAN_MOTION":15.8841521,"ECCENTRICITY":0.00010035,"INCLINATION":53.1583,"RA_OF_ASC_NODE":201.0179,"ARG_OF_PERICENTER":83.9087,"MEAN_ANOMALY":62.2096,"EPHEMERIS_TYPE":0,"CLASSIFICATION_TYPE":"U","NORAD_CAT_ID":68566,"ELEMENT_SET_NO":999,"REV_AT_EPOCH":325,"BSTAR":-0.0050499839,"MEAN_MOTION_DOT":-0.01268893,"MEAN_MOTION_DDOT":0},{"OBJECT_NAME":"STARLINK-37261","OBJECT_ID":"2026-070AB","EPOCH":"2026-04-15T06:00:02.000160","MEAN_MOTION":15.88456316,"ECCENTRICITY":0.00011437,"INCLINATION":53.1582,"RA_OF_ASC_NODE":201.0094,"ARG_OF_PERICENTER":90.8434,"MEAN_ANOMALY":59.4871,"EPHEMERIS_TYPE":0,"CLASSIFICATION_TYPE":"U","NORAD_CAT_ID":68567,"ELEMENT_SET_NO":999,"REV_AT_EPOCH":325,"BSTAR":-0.0050473951,"MEAN_MOTION_DOT":-0.0127074,"MEAN_MOTION_DDOT":0},{"OBJECT_NAME":"STARLINK-37283","OBJECT_ID":"2026-070AC","EPOCH":"2026-04-15T06:00:02.000160","MEAN_MOTION":15.80882509,"ECCENTRICITY":0.00011808,"INCLINATION":53.1599,"RA_OF_ASC_NODE":201.3568,"ARG_OF_PERICENTER":88.7934,"MEAN_ANOMALY":253.9568,"EPHEMERIS_TYPE":0,"CLASSIFICATION_TYPE":"U","NORAD_CAT_ID":68568,"ELEMENT_SET_NO":999,"REV_AT_EPOCH":325,"BSTAR":-0.00016706711,"MEAN_MOTION_DOT":-0.00033559,"MEAN_MOTION_DDOT":0},{"OBJECT_NAME":"STARLINK-37256","OBJECT_ID":"2026-070AD","EPOCH":"2026-04-15T06:00:02.000160","MEAN_MOTION":15.80881932,"ECCENTRICITY":0.00012988,"INCLINATION":53.16,"RA_OF_ASC_NODE":201.3656,"ARG_OF_PERICENTER":96.6455,"MEAN_ANOMALY":241.829,"EPHEMERIS_TYPE":0,"CLASSIFICATION_TYPE":"U","NORAD_CAT_ID":68569,"ELEMENT_SET_NO":999,"REV_AT_EPOCH":325,"BSTAR":-0.00011052821,"MEAN_MOTION_DOT":-0.00022466,"MEAN_MOTION_DDOT":0},{"OBJECT_NAME":"STARLINK-37228","OBJECT_ID":"2026-070AE","EPOCH":"2026-04-15T06:00:02.000160","MEAN_MOTION":15.80888435,"ECCENTRICITY":0.00010212,"INCLINATION":53.16,"RA_OF_ASC_NODE":201.3481,"ARG_OF_PERICENTER":100.4521,"MEAN_ANOMALY":246.5563,"EPHEMERIS_TYPE":0,"CLASSIFICATION_TYPE":"U","NORAD_CAT_ID":68570,"ELEMENT_SET_NO":999,"REV_AT_EPOCH":325,"BSTAR":-0.00010433209,"MEAN_MOTION_DOT":-0.00021254,"MEAN_MOTION_DDOT":0}]
