STARLINK-37146          
1 68555U 26070P   26105.25002315 -.01227573  00000+0 -50774-2 0  9999
2 68555  53.1584 201.1226 0000873  88.9907   7.0991 15.87566754  3250
STARLINK-37144          
1 68556U 26070Q   26105.25002315 -.01246854  00000+0 -51084-2 0  9998
2 68556  53.1586 201.0896 0000856  94.8153  17.0421 15.87795918  3250
STARLINK-37210          
1 68557U 26070R   26105.25002315 -.01246995  00000+0 -51243-2 0  9992
2 68557  53.1584 201.0983 0000939  97.0868  10.9102 15.87735336  3252
STARLINK-37227          
1 68558U 26070S   26105.25002315 -.01254149  00000+0 -51246-2 0  9996
2 68558  53.1582 201.0814 0000985  97.5148  18.2193 15.87862269  3258
STARLINK-37294          
1 68559U 26070T   26105.25002315 -.01257886  00000+0 -51304-2 0  9993
2 68559  53.1585 201.0731 0001104  79.0248  40.8092 15.87905181  3250
STARLINK-37291          
1 68560U 26070U   26105.25002315 -.01257943  00000+0 -51131-2 0  9997
2 68560  53.1583 201.0649 0001095 101.3166  22.3224 15.87973595  3251
STARLINK-37114          
1 68561U 26070V   26105.25002315 -.01259368  00000+0 -50991-2 0  9994
2 68561  53.1583 201.0574 0001138  90.6603  36.6449 15.88052988  3255
STARLINK-37233          
1 68562U 26070W   26105.25002315 -.01262125  00000+0 -50776-2 0  9991
2 68562  53.1584 201.0413 0001255  87.5308  47.4483 15.88184634  3258
STARLINK-36238          
1 68563U 26070X   26105.25002315 -.01262210  00000+0 -50933-2 0  9992
2 68563  53.1582 201.0495 0001216  81.7686  49.3094 15.88125241  3213
STARLINK-37008          
1 68564U 26070Y   26105.25002315 -.01268141  00000+0 -50899-2 0  9993
2 68564  53.1582 201.0333 0001067  88.0046  50.9499 15.88245243  3255
STARLINK-37161          
1 68565U 26070Z   26105.25002315 -.01274646  00000+0 -51019-2 0  9996
2 68565  53.1581 201.0249 0001088  81.9263  60.9105 15.88312932  3252
STARLINK-37212          
1 68566U 26070AA  26105.25002315 -.01268893  00000+0 -50500-2 0  9998
2 68566  53.1583 201.0179 0001003  83.9087  62.2096 15.88415210  3257
STARLINK-37261          
1 68567U 26070AB  26105.25002315 -.01270740  00000+0 -50474-2 0  9993
2 68567  53.1582 201.0094 0001143  90.8434  59.4871 15.88456316  3252
STARLINK-37283          
1 68568U 26070AC  26105.25002315 -.00033559  00000+0 -16707-3 0  9990
2 68568  53.1599 201.3568 0001180  88.7934 253.9568 15.80882509  3255
STARLINK-37256          
1 68569U 26070AD  26105.25002315 -.00022466  00000+0 -11053-3 0  9995
2 68569  53.1600 201.3656 0001298  96.6455 241.8290 15.80881932  3250
STARLINK-37228          
1 68570U 26070AE  26105.25002315 -.00021254  00000+0 -10433-3 0  9992
2 68570  53.1600 201.3481 0001021 100.4521 246.5563 15.80888435  3250
